[{"OBJECT_NAME":"QIANFAN-2","OBJECT_ID":"2024-140B","EPOCH":"2026-03-09T23:14:41.949312","MEAN_MOTION":13.51004289,"ECCENTRICITY":0.00112817,"INCLINATION":88.9694,"RA_OF_ASC_NODE":290.0836,"ARG_OF_PERICENTER":300.4014,"MEAN_ANOMALY":59.6021,"EPHEMERIS_TYPE":0,"CLASSIFICATION_TYPE":"U","NORAD_CAT_ID":60380,"ELEMENT_SET_NO":999,"REV_AT_EPOCH":7918,"BSTAR":0.00010009789,"MEAN_MOTION_DOT":7.7e-7,"MEAN_MOTION_DDOT":0},{"OBJECT_NAME":"CZ-4C DEB","OBJECT_ID":"2021-007C","EPOCH":"2026-03-09T08:28:58.204416","MEAN_MOTION":13.44615717,"ECCENTRICITY":0.01674587,"INCLINATION":63.4055,"RA_OF_ASC_NODE":46.8808,"ARG_OF_PERICENTER":1.7675,"MEAN_ANOMALY":358.3907,"EPHEMERIS_TYPE":0,"CLASSIFICATION_TYPE":"U","NORAD_CAT_ID":47534,"ELEMENT_SET_NO":999,"REV_AT_EPOCH":25058,"BSTAR":0.00021150103,"MEAN_MOTION_DOT":4.5e-7,"MEAN_MOTION_DDOT":0}]
